NORAD_CAT_ID,OBJECT_NAME,OBJECT_TYPE,EPOCH,MEAN_MOTION,ECCENTRICITY,INCLINATION,RA_OF_ASC_NODE,ARG_OF_PERICENTER,MEAN_ANOMALY,BSTAR,MEAN_MOTION_DOT,MEAN_MOTION_DDOT,TLE_LINE0,TLE_LINE1,TLE_LINE2,SEMIMAJOR_AXIS,PERIOD,APOGEE,PERIGEE,DECAYED
53981.0,STARLINK-5149,PAYLOAD,2022-10-27 12:00:02,15.73252213,0.0002676,53.2206,344.9672,16.5773,80.1795,-0.00013318,-0.00019316,0.0,0 STARLINK-5149,1 53981U 22125T   22300.50002315 -.00019316  00000-0 -13318-3 0  9992,2 53981  53.2206 344.9672 0002676  16.5773  80.1795 15.73252213  3780,6727.746,91.53,351.412,347.811,0.0
53981.0,STARLINK-5149,PAYLOAD,2022-10-27 14:00:01,15.73233681,0.0002699,53.2205,344.5549,14.6131,194.3938,2.5164e-05,2.916e-05,0.0,0 STARLINK-5149,1 53981U 22125T   22300.58335648  .00002916  00000-0  25164-4 0  9997,2 53981  53.2205 344.5549 0002699  14.6131 194.3938 15.73233681  1301,6727.799,91.531,351.48,347.848,0.0
53981.0,STARLINK-5149,PAYLOAD,2022-10-27 22:00:00,15.73228074,0.0002498,53.2208,342.9034,13.5673,284.3596,-6.2016e-05,-9.328e-05,0.0,0 STARLINK-5149,1 53981U 22125T   22300.91667824 -.00009328  00000-0 -62016-4 0  9991,2 53981  53.2208 342.9034 0002498  13.5673 284.3596 15.73228074  1301,6727.815,91.532,351.361,348.0,0.0
53981.0,STARLINK-5149,PAYLOAD,2022-10-28 14:00:01,15.73147143,0.0002824,53.2202,339.6061,14.0826,101.8356,0.0004833,0.0006761,0.0,0 STARLINK-5149,1 53981U 22125T   22301.58335648  .00067610  00000-0  48330-3 0  9999,2 53981  53.2202 339.6061 0002824  14.0826 101.8356 15.73147143  3954,6728.045999999999,91.536,351.811,348.011,0.0
53981.0,STARLINK-5149,PAYLOAD,2022-10-28 22:00:01,15.73198613,0.0002554,53.2202,337.9547,13.3784,191.4344,-0.00016105,-0.00023164,0.0,0 STARLINK-5149,1 53981U 22125T   22301.91668981 -.00023164  00000-0 -16105-3 0  9998,2 53981  53.2202 337.9547 0002554  13.3784 191.4344 15.73198613  1306,6727.899,91.533,351.482,348.046,0.0
53981.0,STARLINK-5149,PAYLOAD,2022-10-29 04:00:00,15.73210052,0.0002555,53.2204,336.718,16.0888,165.3611,-0.00029724,-0.00042154,0.0,0 STARLINK-5149,1 53981U 22125T   22302.16667824 -.00042154  00000-0 -29724-3 0  9992,2 53981  53.2204 336.7180 0002555  16.0888 165.3611 15.73210052  4047,6727.8669999999975,91.533,351.45,348.01300000000015,0.0
53981.0,STARLINK-5149,PAYLOAD,2022-10-29 12:00:00,15.73156505,0.0002904,53.2205,335.0705,17.0691,253.3128,0.00090036,0.0012745,0.0,0 STARLINK-5149,1 53981U 22125T   22302.50001157  .00127450  00000-0  90036-3 0  9996,2 53981  53.2205 335.0705 0002904  17.0691 253.3128 15.73156505  1303,6728.019,91.536,351.838,347.93,0.0
53981.0,STARLINK-5149,PAYLOAD,2022-10-29 22:00:01,15.73260869,0.0002682,53.2207,333.0065,17.1005,94.5216,1.6905e-05,1.757e-05,0.0,0 STARLINK-5149,1 53981U 22125T   22302.91668981  .00001757  00000-0  16905-4 0  9990,2 53981  53.2207 333.0065 0002682  17.1005  94.5216 15.73260869  1307,6727.722,91.53,351.391,347.782,0.0
53981.0,STARLINK-5149,PAYLOAD,2022-10-30 00:00:00,15.73272252,0.0002663999999999,53.2206,332.5937,18.1722,205.6328,-0.00019623,-0.0002816,0.0,0 STARLINK-5149,1 53981U 22125T   22303.00001157 -.00028160  00000-0 -19623-3 0  9995,2 53981  53.2206 332.5937 0002664  18.1722 205.6328 15.73272252  4171,6727.689,91.529,351.346,347.76199999999994,0.0
53981.0,STARLINK-5149,PAYLOAD,2022-10-30 14:00:01,15.7318513,0.0002927,53.2203,329.7094,13.0261,276.4927,-0.00061088,-0.00085458,0.0,0 STARLINK-5149,1 53981U 22125T   22303.58334491 -.00085458  00000-0 -61088-3 0  9993,2 53981  53.2203 329.7094 0002927  13.0261 276.4927 15.73185130  1305,6727.938,91.534,351.772,347.833,0.0
53981.0,STARLINK-5149,PAYLOAD,2022-10-30 22:00:01,15.73088946,0.0002589,53.2203,328.05800000000005,8.5148,9.9602,0.00024548,0.0003381,0.0,0 STARLINK-5149,1 53981U 22125T   22303.91668981  .00033810  00000-0  24548-3 0  9997,2 53981  53.2203 328.0580 0002589   8.5148   9.9602 15.73088946  1300,6728.212,91.54,351.819,348.335,0.0
53981.0,STARLINK-5149,PAYLOAD,2022-10-31 14:00:01,15.73158053,0.0002712,53.2203,324.7622,14.0581,181.8616,0.0006299,0.00088568,0.0,0 STARLINK-5149,1 53981U 22125T   22304.58334491  .00088568  00000-0  62990-3 0  9990,2 53981  53.2203 324.7622 0002712  14.0581 181.8616 15.73158053  1303,6728.015,91.536,351.704,348.055,0.0
53981.0,STARLINK-5149,PAYLOAD,2022-10-31 20:00:01,15.73202803,0.0002566999999999,53.2209,323.5235,16.7908,155.8838,0.00062554,0.00088114,0.0,0 STARLINK-5149,1 53981U 22125T   22304.83335648  .00088114  00000-0  62554-3 0  9996,2 53981  53.2209 323.5235 0002567  16.7908 155.8838 15.73202803  4466,6727.887,91.533,351.47900000000016,348.025,0.0
53981.0,STARLINK-5149,PAYLOAD,2022-10-31 22:00:01,15.73212226,0.0002552,53.2207,323.1108,17.9825,266.9311,0.00064059,0.00090309,0.0,0 STARLINK-5149,1 53981U 22125T   22304.91668981  .00090309  00000-0  64059-3 0  9995,2 53981  53.2207 323.1108 0002552  17.9825 266.9311 15.73212226  1304,6727.86,91.532,351.44199999999995,348.0080000000001,0.0
53981.0,STARLINK-5149,PAYLOAD,2022-11-01 04:00:00,15.73288279,0.0002641,53.2209,321.8745,21.9432,239.6301,-0.00036501,-0.00051738,0.0,0 STARLINK-5149,1 53981U 22125T   22305.16667824 -.00051738  00000-0 -36501-3 0  9994,2 53981  53.2209 321.8745 0002641  21.9432 239.6301 15.73288279  4519,6727.643,91.528,351.285,347.732,0.0
53981.0,STARLINK-5149,PAYLOAD,2022-11-01 14:00:01,15.73229477,0.0002856,53.2203,319.8138,19.2196,83.6097,0.00018204,0.00025038,0.0,0 STARLINK-5149,1 53981U 22125T   22305.58334491  .00025038  00000-0  18204-3 0  9993,2 53981  53.2203 319.8138 0002856  19.2196  83.6097 15.73229477  1309,6727.811,91.531,351.598,347.755,0.0
53981.0,STARLINK-5149,PAYLOAD,2022-11-01 20:00:01,15.7325002,0.000258,53.2204,318.5752,18.4103,61.1541,-0.00035142,-0.00049765,0.0,0 STARLINK-5149,1 53981U 22125T   22305.83334491 -.00049765  00000-0 -35142-3 0  9996,2 53981  53.2204 318.5752 0002580  18.4103  61.1541 15.73250020  4622,6727.753000000002,91.53,351.353,347.88199999999995,0.0
53981.0,STARLINK-5149,PAYLOAD,2022-11-01 22:00:00,15.73225844,0.0002551,53.2201,318.1625,19.1785,172.6378,-0.00013047,-0.00018915,0.0,0 STARLINK-5149,1 53981U 22125T   22305.91667824 -.00018915  00000-0 -13047-3 0  9997,2 53981  53.2201 318.1625 0002551  19.1785 172.6378 15.73225844  1300,6727.821,91.532,351.403,347.97,0.0
53981.0,STARLINK-5149,PAYLOAD,2022-11-02 12:00:00,15.73135355,0.0002848,53.2193,315.2787,16.7715,240.6947,0.00089128,0.00126021,0.0,0 STARLINK-5149,1 53981U 22125T   22306.50001157  .00126021  00000-0  89128-3 0  9993,2 53981  53.2193 315.2787 0002848  16.7715 240.6947 15.73135355  4726,6728.079000000002,91.537,351.861,348.028,0.0
53981.0,STARLINK-5149,PAYLOAD,2022-11-02 14:00:01,15.73180425,0.0002861,53.2188,314.8658,16.7986,352.87800000000016,0.00044357,0.00062048,0.0,0 STARLINK-5149,1 53981U 22125T   22306.58334491  .00062048  00000-0  44357-3 0  9994,2 53981  53.2188 314.8658 0002861  16.7986 352.8780 15.73180425  1307,6727.951,91.534,351.741,347.891,0.0
53981.0,STARLINK-5149,PAYLOAD,2022-11-02 18:00:02,15.7325964,0.000274,53.2189,314.0395,18.8726,215.3179,-0.00085716,-0.00119557,0.0,0 STARLINK-5149,1 53981U 22125T   22306.75002315 -.00119557  00000-0 -85716-3 0  9994,2 53981  53.2189 314.0395 0002740  18.8726 215.3179 15.73259640  4763,6727.725,91.53,351.434,347.747,0.0
53981.0,STARLINK-5149,PAYLOAD,2022-11-02 22:00:00,15.73203674,0.000249,53.2204,313.2145,15.731,82.895,0.0001611,0.00022053,0.0,0 STARLINK-5149,1 53981U 22125T   22306.91667824  .00022053  00000-0  16110-3 0  9998,2 53981  53.2204 313.2145 0002490  15.7310  82.8950 15.73203674  1309,6727.885,91.533,351.425,348.074,0.0
53981.0,STARLINK-5149,PAYLOAD,2022-11-03 04:00:00,15.73256828,0.0002581,53.2205,311.9785,13.7296,61.6081,-0.00037955,-0.00053689,0.0,0 STARLINK-5149,1 53981U 22125T   22307.16667824 -.00053689  00000-0 -37955-3 0  9997,2 53981  53.2205 311.9785 0002581  13.7296  61.6081 15.73256828  4837,6727.733,91.53,351.335,347.862,0.0
53981.0,STARLINK-5149,PAYLOAD,2022-11-03 14:00:01,15.73264817,0.0002753,53.2198,309.9173,12.1782,264.3552,-2.2401e-05,-3.775e-05,0.0,0 STARLINK-5149,1 53981U 22125T   22307.58334491 -.00003775  00000-0 -22401-4 0  9996,2 53981  53.2198 309.9173 0002753  12.1782 264.3552 15.73264817  4898,6727.71,91.529,351.42800000000005,347.723,0.0
53981.0,STARLINK-5149,PAYLOAD,2022-11-03 22:00:00,15.73248817,0.0002525,53.2198,308.2661,17.2096,348.3469,0.00012716,0.000173,0.0,0 STARLINK-5149,1 53981U 22125T   22307.91667824  .00017300  00000-0  12716-3 0  9996,2 53981  53.2198 308.2661 0002525  17.2096 348.3469 15.73248817  1308,6727.755999999999,91.53,351.32,347.922,0.0
53981.0,STARLINK-5149,PAYLOAD,2022-11-04 12:00:00,15.73218172,0.0002782,53.2196,305.3818,16.6849,54.6088,-0.00019356,-0.00027724,0.0,0 STARLINK-5149,1 53981U 22125T   22308.50001157 -.00027724  00000-0 -19356-3 0  9993,2 53981  53.2196 305.3818 0002782  16.6849  54.6088 15.73218172  5042,6727.843000000003,91.532,351.58,347.837,0.0
53981.0,STARLINK-5149,PAYLOAD,2022-11-04 14:00:01,15.73225935,0.0002762,53.219,304.9687,16.9904,166.5376,-0.00041967,-0.00059185,0.0,0 STARLINK-5149,1 53981U 22125T   22308.58334491 -.00059185  00000-0 -41967-3 0  9990,2 53981  53.2190 304.9687 0002762  16.9904 166.5376 15.73225935  1301,6727.821,91.532,351.5440000000001,347.82800000000015,0.0
53981.0,STARLINK-5149,PAYLOAD,2022-11-04 20:00:01,15.7315488,0.0002592,53.2198,303.7301,17.8069,142.4375,-0.00036486,-0.00051426,0.0,0 STARLINK-5149,1 53981U 22125T   22308.83334491 -.00051426  00000-0 -36486-3 0  9998,2 53981  53.2198 303.7301 0002592  17.8069 142.4375 15.73154880  5094,6728.024,91.536,351.6330000000001,348.145,0.0
53981.0,STARLINK-5149,PAYLOAD,2022-11-04 22:00:01,15.73148815,0.0002583999999999,53.2199,303.3174,19.6546,252.8733,-0.00045418,-0.00063754,0.0,0 STARLINK-5149,1 53981U 22125T   22308.91668981 -.00063754  00000-0 -45418-3 0  9993,2 53981  53.2199 303.3174 0002584  19.6546 252.8733 15.73148815  1305,6728.041,91.536,351.645,348.168,0.0
